OPTICUBE 04             
1 41851U 16067D   19133.84860729 -.00000404  00000-0 -29973-4 0  9994
2 41851  97.9140 231.0325 0009645 138.1541 222.0419 14.96793739136552
AEROCUBE 8D             
1 41852U 16067E   19133.84910251 -.00000240  00000-0 -15716-4 0  9999
2 41852  97.9150 230.8582 0010458 138.8673 221.3338 14.96694138136536
AEROCUBE 8C             
1 41853U 16067F   19134.20546329  .00000567  00000-0  54940-4 0  9994
2 41853  97.9145 231.1574 0011130 139.5183 220.6868 14.96656469136588
PROMETHEUS 2-1          
1 41854U 16067G   19133.84357434 -.00000096  00000-0 -31093-5 0  9995
2 41854  97.9160 230.9102 0011180 139.2733 220.9326 14.96865607136536
PROMETHEUS 2-3          
1 41855U 16067H   19133.84602904 -.00000090  00000-0 -25501-5 0  9992
2 41855  97.9161 230.9271 0011315 139.9853 220.2204 14.96869942136539
INS-1B                  
1 41954U 17008G   19133.77486637  .00001418  00000-0  61735-4 0  9994
2 41954  97.4022 199.2845 0007482 271.9610  88.0771 15.23852690124339
BGUSAT                  
1 41999U 17008BD  19133.87486967  .00002659  00000-0  10635-3 0  9990
2 41999  97.4090 201.5999 0006348 288.9852  71.0698 15.25964892123830
DIDO-2                  
1 42000U 17008BE  19134.48544598  .00001210  00000-0  53157-4 0  9996
2 42000  97.4035 200.5281 0006904 292.6349  67.4158 15.23832409123844
PEASSS                  
1 42015U 17008BV  19133.74934365  .00001283  00000-0  54640-4 0  9993
2 42015  97.4042 200.7017 0004881 305.1954  54.8826 15.24776294124271
AL-FARABI 1             
1 42016U 17008BW  19134.15643159  .00001717  00000-0  70893-4 0  9998
2 42016  97.4056 201.6039 0004679 302.4460  57.6326 15.25388941124486
NAYIF-1 (EO-88)         
1 42017U 17008BX  19134.40709690  .00002024  00000-0  82967-4 0  9997
2 42017  97.4053 201.8616 0004654 301.6604  58.4180 15.25423638124548
PHOENIX                 
1 42706U 98067LP  19128.42254485  .08245211  12410-4  57150-3 0  9990
2 42706  51.5998 109.6560 0003143 270.9046 228.4560 16.40380041113340
ALTAIR PATHFINDER       
1 42711U 98067LS  19134.54694482  .00071003  00000-0  40193-3 0  9996
2 42711  51.6339 111.7611 0004197  29.1081 331.0153 15.78417343113536
SHARC                   
1 42712U 98067LT  19123.64217769  .08981558  12375-4  84912-3 0  9997
2 42712  51.6192 152.4129 0003348 312.8737 146.7300 16.37776182112255
ZA-AEROSAT              
1 42713U 98067LU  19134.31728986  .00409048  88260-4  57683-3 0  9994
2 42713  51.6247  87.3041 0003148  93.6858 266.4514 16.05143636113831
NJUST-1                 
1 42722U 98067MB  19134.41689991  .00149314  19485-4  44479-3 0  9996
2 42722  51.6304  95.4982 0004646  62.9036  28.8093 15.92136858112801
NSIGHT                  
1 42726U 98067MF  19134.52745968  .00045868  00000-0  37511-3 0  9996
2 42726  51.6351 128.4112 0006303  41.6381 318.5095 15.70050550112292
BEEAGLESAT              
1 42736U 98067MR  19116.58349394  .05344197  12378-4  56382-3 0  9990
2 42736  51.6116 172.4218 0006034 335.7210 140.8917 16.36759636110007
UCLSAT                  
1 42765U 17036A   19133.85382687  .00001445  00000-0  64972-4 0  9991
2 42765  97.3540 192.6246 0011458   5.0392 355.0958 15.22656915105601
LITUANICASAT-2          
1 42768U 17036D   19134.16176716  .00002410  00000-0  10628-3 0  9994
2 42768  97.3573 192.5103 0014606 352.0692   8.0311 15.22653246104901
AALTO-1                 
1 42775U 17036L   19134.20970779  .00001070  00000-0  50827-4 0  9995
2 42775  97.3526 191.8033 0013629 352.1220   7.9800 15.21279644104819
URSA MAIOR              
1 42776U 17036M   19133.84463938  .00001003  00000-0  47663-4 0  9999
2 42776  97.3536 191.5827 0013477 353.5210   6.5850 15.21405437104769
COMPASS 2               
1 42777U 17036N   19133.72262346  .00001908  00000-0  84560-4 0  9998
2 42777  97.3573 192.5353 0012200 356.3996   3.7151 15.22773931104795
DIAMOND RED             
1 42783U 17036U   19134.41234802  .00001347  00000-0  61686-4 0  9999
2 42783  97.3541 192.8020 0012089   3.4120 356.7197 15.22127209104887
PEGASUS                 
1 42784U 17036V   19134.20092243  .00001492  00000-0  67458-4 0  9992
2 42784  97.3545 192.7973 0011997   3.7656 356.3668 15.22410274104866
DIAMOND GREEN           
1 42785U 17036W   19133.88525941  .00001190  00000-0  54862-4 0  9992
2 42785  97.3544 192.3094 0012077   5.9450 354.1927 15.22125082104877
DIAMOND BLUE            
1 42786U 17036X   19133.88429246  .00001171  00000-0  54058-4 0  9990
2 42786  97.3543 192.3071 0011919   6.3079 353.8305 15.22123198104870
NUDTSAT                 
1 42787U 17036Y   19134.22074688  .00001645  00000-0  72111-4 0  9992
2 42787  97.3572 193.4339 0012964 359.0595   1.0617 15.23325241104742
SUCHAI                  
1 42788U 17036Z   19134.15180361  .00001569  00000-0  70002-4 0  9993
2 42788  97.3548 193.0239 0011560   3.5469 356.5847 15.22808579104947
SKCUBE                  
1 42789U 17036AA  19133.90246085  .00001481  00000-0  66403-4 0  9995
2 42789  97.3545 192.7298 0011439   4.6311 355.5029 15.22714247104825
VZLUSAT-1               
1 42790U 17036AB  19133.74776402  .00001969  00000-0  85783-4 0  9993
2 42790  97.3558 192.9756 0010934   5.1554 354.9793 15.23331596104820
ROBUSTA-1B              
1 42792U 17036AD  19133.83717876  .00001498  00000-0  66826-4 0  9999
2 42792  97.3545 192.8040 0011061   5.9804 354.1563 15.22877037104833
CICERO 6                
1 42793U 17036AE  19134.21656353  .00001209  00000-0  55090-4 0  9996
2 42793  97.3530 192.9909 0010345   6.8577 353.2799 15.22508533104950
D-SAT                   
1 42794U 17036AF  19134.17360503  .00000068  00000-0  11573-4 0  9991
2 42794  97.5432 180.4316 0125030 259.8995  98.8100 14.91074391103042
TOKI                    
1 42820U 98067MU  19123.10626650  .20777511  12651-4  37226-3 0  9990
2 42820  51.6051 142.7539 0005305 301.2009  59.2873 16.47402492104441
MAZAALAI (NUMSAT-1)     
1 42822U 98067MW  19131.43194823  .10190864  12355-4  76666-3 0  9990
2 42822  51.6054 100.7046 0005179 246.5694 204.7401 16.39672911105736
BRAC ONNESHA            
1 42823U 98067MX  19126.46325411  .10871672  12483-4  53364-3 0  9992
2 42823  51.6136 126.1830 0002073 268.7751  91.3478 16.43067843104944
NIGERIAEDUSAT-1         
1 42824U 98067MY  19133.12526632  .12220275  12529-4  51637-3 0  9993
2 42824  51.6091  92.5367 0003545 299.4874 174.6355 16.43636834105973
CORVUS BC2              
1 42846U 17042X   19133.66400151  .00000290  00000-0  33963-4 0  9997
2 42846  97.5697  29.0948 0009824 166.2757 193.8731 14.91958921 99647
CORVUS BC1              
1 42847U 17042Y   19133.88790600 -.00000007  00000-0  46273-5 0  9999
2 42847  97.5698  29.4103 0009507 164.3452 195.8063 14.92058855 99676
MIRATA                  
1 43015U 17073C   19134.56992265  .00001537  00000-0  12635-3 0  9999
2 43015  97.7198  57.1507 0254038 272.3085  84.9063 14.78927796 80109
MAKERSAT 0              
1 43016U 17073D   19133.76639897  .00000568  00000-0  50465-4 0  9997
2 43016  97.7230  56.5745 0256176 275.2260  81.9768 14.78693146 79977
ASTERIA                 
1 43020U 98067NH  19134.46779183  .00018256  00000-0  15781-3 0  9999
2 43020  51.6411 139.4425 0003047  15.8580 344.2512 15.69266911 84322
DELLINGR (RBLE)         
1 43021U 98067NJ  19134.60646590  .00016955  00000-0  19162-3 0  9992
2 43021  51.6371 149.2710 0002596 352.8715   7.2242 15.62582400 84206
AEROCUBE 7B (OCSD B)    
1 43042U 17071F   19134.22773627  .00003506  00000-0  93342-4 0  9992
2 43042  51.6377 226.2762 0004935  30.3133 329.8137 15.41004676 80617
AEROCUBE 7C (OCSD C)    
1 43043U 17071G   19133.70899773  .00002818  00000-0  76986-4 0  9996
2 43043  51.6378 228.8258 0005112  31.1640 328.9648 15.40985628 80506
CHEFSAT                 
1 43044U 17071H   19134.66566385  .00012925  00000-0  29219-3 0  9999
2 43044  51.6380 219.5676 0004947  31.3015 328.8265 15.43505397 80715
ASGARDIA 1              
1 43049U 17071N   19134.70145678  .00006916  00000-0  17382-3 0  9998
2 43049  51.6387 223.4783 0002744  52.9855 307.1381 15.41131491 80654
ISARA                   
1 43050U 17071P   19134.67006724  .00011688  00000-0  26959-3 0  9996
2 43050  51.6375 220.3099 0002542  46.2722 313.8474 15.43013369 80690
PROPCUBE 2 (FAUNA)      
1 43052U 17071R   19134.25947851  .00004795  00000-0  12251-3 0  9998
2 43052  51.6383 225.0442 0002615  49.0219 311.0992 15.41384027 80592
CORVUS BC3              
1 43118U 18004H   19133.72815658  .00000883  00000-0  40834-4 0  9991
2 43118  97.4888 201.1994 0011076  26.8929 333.2879 15.22784779 74008
MICROMAS-2A             
1 43131U 18004W   19134.22332871  .00002635  00000-0  11171-3 0  9991
2 43131  97.4910 202.3015 0010009  28.3358 331.8421 15.23992850 74115
CICERO 7                
1 43143U 18004AJ  19134.25009217  .00002228  00000-0  94522-4 0  9992
2 43143  97.4898 202.5409 0008470  38.8433 321.3411 15.24147063 74135
GOMX-4B                 
1 43196U 18015E   19133.91829672  .00000936  00000-0  41499-4 0  9998
2 43196  97.3833 261.9746 0020532  73.5158 286.8325 15.23911895 70896
GOMX-4A                 
1 43197U 18015F   19134.84009450  .00001240  00000-0  53875-4 0  9996
2 43197  97.3859 262.9068 0020724  72.0495  30.7150 15.24004433 71046
1KUNS-PF                
1 43466U 98067NP  19134.48805697  .00039965  00000-0  40236-3 0  9998
2 43466  51.6363 152.9620 0002114  18.5971 341.5101 15.65004291 57407
UBAKUSAT                
1 43467U 98067NQ  19134.68239067  .00023243  00000-0  26517-3 0  9991
2 43467  51.6361 155.0055 0002397 326.9163  33.1681 15.62104052 57404
BATSU-CS1 (IRAZU)       
1 43468U 98067NR  19134.21695035  .00031432  00000-0  28953-3 0  9997
2 43468  51.6356 151.8853 0002516  20.8254 339.2845 15.67345241157385
CUBERRT                 
1 43546U 98067NU  19134.55810016  .00014513  00000-0  16099-3 0  9998
2 43546  51.6370 157.1708 0006341   6.8111 353.2969 15.63193939 47496
